STARLINK-31933          
1 59874U 24098S   26068.01466107  .00002962  00000+0  11716-3 0  9990
2 59874  42.9985 281.7463 0000885 283.3365  76.7387 15.27564911101746
FLOCK 4G-11             
1 62629U 25009W   26068.45629261  .00012672  00000+0  47740-3 0  9990
2 62629  97.3964 150.6183 0001611 333.5407  26.5750 15.27220677 63680
